KUIPER-00027            
1 63740U 25088S   25335.26186793  .00001717  00000+0  25488-3 0  9998
2 63740  51.8996 170.7449 0004868 182.2012 177.8930 14.79832460 33043
KUIPER-00028            
1 63741U 25088T   25335.28211127  .00001932  00000+0  28462-3 0  9995
2 63741  51.8987 168.6632 0004001 201.9861 158.0930 14.79594921 33480
KUIPER-00029            
1 63742U 25088U   25334.83864598 -.00030175  00000+0 -39389-2 0  9994
2 63742  51.9017 168.4322 0009821 152.9112 207.2365 14.79978196 32971
KUIPER-00030            
1 63743U 25088V   25334.98305011  .00001657  00000+0  24637-3 0  9993
2 63743  51.8990 187.0184 0016315 100.5512 259.7289 14.79923591 33015
KUIPER-00031            
1 63744U 25088W   25335.26757364  .00001076  00000+0  17013-3 0  9993
2 63744  51.8994 171.8305 0005506 140.1880 219.9487 14.79970702 32961
KUIPER-00032            
1 63745U 25088X   25334.84056815  .00014242  00000+0  44947-3 0  9995
2 63745  51.8710 140.5374 0005247 139.7060 220.4315 15.33090607 34364
KUIPER-00033            
1 63746U 25088Y   25335.03274062  .00003163  00000+0  44342-3 0  9993
2 63746  51.8990 202.8561 0003742 187.5915 172.4992 14.79968690 32992
KUIPER-00034            
1 63747U 25088Z   25335.33342593  .00023248  00000+0  30690-2 0  9998
2 63747  51.8994 164.0408 0002851 131.1429 175.9374 14.79918048  5715
